COSMOS 1408 DEB         
1 50032U 82092RU  26063.06739092  .00007568  00000+0  15019-3 0  9998
2 50032  82.5668 335.0914 0013622 279.7350  80.2360 15.46701006238607
COSMOS 1408 DEB         
1 50058U 82092SW  26062.83894793  .00055109  00000+0  44241-3 0  9993
2 50058  82.6149 344.0604 0014571 142.9404 217.2867 15.70635323240748
COSMOS 1408 DEB         
1 50404U 82092ADS 26063.15268747  .00186936  00000+0  45468-2 0  9992
2 50404  82.1968 130.5363 0126864 273.9110  84.7635 15.32358808224329
COSMOS 1408 DEB         
1 50621U 82092ALR 26062.80177503  .00042786  00000+0  48330-3 0  9999
2 50621  82.5721 349.4620 0022952 205.8278 154.1836 15.61951603235130
