[{"OBJECT_NAME":"COSMOS 1408 DEB","OBJECT_ID":"1982-092RU","EPOCH":"2026-03-04T01:37:02.575488","MEAN_MOTION":15.46701006,"ECCENTRICITY":0.0013622,"INCLINATION":82.5668,"RA_OF_ASC_NODE":335.0914,"ARG_OF_PERICENTER":279.735,"MEAN_ANOMALY":80.236,"EPHEMERIS_TYPE":0,"CLASSIFICATION_TYPE":"U","NORAD_CAT_ID":50032,"ELEMENT_SET_NO":999,"REV_AT_EPOCH":23860,"BSTAR":0.00015019,"MEAN_MOTION_DOT":7.568e-5,"MEAN_MOTION_DDOT":0},{"OBJECT_NAME":"COSMOS 1408 DEB","OBJECT_ID":"1982-092SW","EPOCH":"2026-03-03T20:08:05.101152","MEAN_MOTION":15.70635323,"ECCENTRICITY":0.0014571,"INCLINATION":82.6149,"RA_OF_ASC_NODE":344.0604,"ARG_OF_PERICENTER":142.9404,"MEAN_ANOMALY":217.2867,"EPHEMERIS_TYPE":0,"CLASSIFICATION_TYPE":"U","NORAD_CAT_ID":50058,"ELEMENT_SET_NO":999,"REV_AT_EPOCH":24074,"BSTAR":0.00044241,"MEAN_MOTION_DOT":0.00055109,"MEAN_MOTION_DDOT":0},{"OBJECT_NAME":"COSMOS 1408 DEB","OBJECT_ID":"1982-092ADS","EPOCH":"2026-03-04T03:39:52.197408","MEAN_MOTION":15.32358808,"ECCENTRICITY":0.0126864,"INCLINATION":82.1968,"RA_OF_ASC_NODE":130.5363,"ARG_OF_PERICENTER":273.911,"MEAN_ANOMALY":84.7635,"EPHEMERIS_TYPE":0,"CLASSIFICATION_TYPE":"U","NORAD_CAT_ID":50404,"ELEMENT_SET_NO":999,"REV_AT_EPOCH":22432,"BSTAR":0.0045468,"MEAN_MOTION_DOT":0.00186936,"MEAN_MOTION_DDOT":0},{"OBJECT_NAME":"COSMOS 1408 DEB","OBJECT_ID":"1982-092ALR","EPOCH":"2026-03-03T19:14:33.362592","MEAN_MOTION":15.61951603,"ECCENTRICITY":0.0022952,"INCLINATION":82.5721,"RA_OF_ASC_NODE":349.462,"ARG_OF_PERICENTER":205.8278,"MEAN_ANOMALY":154.1836,"EPHEMERIS_TYPE":0,"CLASSIFICATION_TYPE":"U","NORAD_CAT_ID":50621,"ELEMENT_SET_NO":999,"REV_AT_EPOCH":23513,"BSTAR":0.0004833,"MEAN_MOTION_DOT":0.00042786,"MEAN_MOTION_DDOT":0}]
